[{"OBJECT_NAME":"SL-14 R/B","OBJECT_ID":"1986-006B","EPOCH":"2026-03-21T13:36:26.716896","MEAN_MOTION":14.86832231,"ECCENTRICITY":0.00753366,"INCLINATION":82.5239,"RA_OF_ASC_NODE":248.5554,"ARG_OF_PERICENTER":232.6794,"MEAN_ANOMALY":126.7543,"EPHEMERIS_TYPE":0,"CLASSIFICATION_TYPE":"U","NORAD_CAT_ID":16496,"ELEMENT_SET_NO":999,"REV_AT_EPOCH":15097,"BSTAR":8.2207859e-5,"MEAN_MOTION_DOT":7.97e-6,"MEAN_MOTION_DDOT":0},{"OBJECT_NAME":"COSMOS 1743","OBJECT_ID":"1986-034A","EPOCH":"2026-03-21T09:18:55.944864","MEAN_MOTION":15.5942809,"ECCENTRICITY":0.00027374,"INCLINATION":82.53,"RA_OF_ASC_NODE":61.5427,"ARG_OF_PERICENTER":198.5015,"MEAN_ANOMALY":161.6143,"EPHEMERIS_TYPE":0,"CLASSIFICATION_TYPE":"U","NORAD_CAT_ID":16719,"ELEMENT_SET_NO":999,"REV_AT_EPOCH":18207,"BSTAR":0.00072551305,"MEAN_MOTION_DOT":0.00057665,"MEAN_MOTION_DDOT":0},{"OBJECT_NAME":"SL-14 R/B","OBJECT_ID":"1986-046B","EPOCH":"2026-03-21T11:01:59.144448","MEAN_MOTION":14.85601397,"ECCENTRICITY":0.00228899,"INCLINATION":82.4792,"RA_OF_ASC_NODE":69.057,"ARG_OF_PERICENTER":185.2309,"MEAN_ANOMALY":174.8672,"EPHEMERIS_TYPE":0,"CLASSIFICATION_TYPE":"U","NORAD_CAT_ID":16792,"ELEMENT_SET_NO":999,"REV_AT_EPOCH":12815,"BSTAR":5.0405759e-5,"MEAN_MOTION_DOT":4.62e-6,"MEAN_MOTION_DDOT":0},{"OBJECT_NAME":"SL-14 R/B","OBJECT_ID":"1986-055B","EPOCH":"2026-03-21T14:24:15.961536","MEAN_MOTION":14.85652829,"ECCENTRICITY":0.00174487,"INCLINATION":82.518,"RA_OF_ASC_NODE":115.4773,"ARG_OF_PERICENTER":294.8134,"MEAN_ANOMALY":183.2921,"EPHEMERIS_TYPE":0,"CLASSIFICATION_TYPE":"U","NORAD_CAT_ID":16882,"ELEMENT_SET_NO":999,"REV_AT_EPOCH":12113,"BSTAR":4.702525e-5,"MEAN_MOTION_DOT":4.32e-6,"MEAN_MOTION_DDOT":0},{"OBJECT_NAME":"AJISAI (EGS)","OBJECT_ID":"1986-061A","EPOCH":"2026-03-21T14:39:18.085536","MEAN_MOTION":12.44515675,"ECCENTRICITY":0.00113092,"INCLINATION":50.0095,"RA_OF_ASC_NODE":56.6892,"ARG_OF_PERICENTER":317.7379,"MEAN_ANOMALY":155.1116,"EPHEMERIS_TYPE":0,"CLASSIFICATION_TYPE":"U","NORAD_CAT_ID":16908,"ELEMENT_SET_NO":999,"REV_AT_EPOCH":46948,"BSTAR":-0.00012154226,"MEAN_MOTION_DOT":-1.15e-6,"MEAN_MOTION_DDOT":0},{"OBJECT_NAME":"SL-14 R/B","OBJECT_ID":"1987-024B","EPOCH":"2026-03-21T13:20:51.309024","MEAN_MOTION":14.86143006,"ECCENTRICITY":0.00172019,"INCLINATION":82.5247,"RA_OF_ASC_NODE":81.6069,"ARG_OF_PERICENTER":217.5613,"MEAN_ANOMALY":142.4403,"EPHEMERIS_TYPE":0,"CLASSIFICATION_TYPE":"U","NORAD_CAT_ID":17567,"ELEMENT_SET_NO":999,"REV_AT_EPOCH":8989,"BSTAR":5.0201492e-5,"MEAN_MOTION_DOT":4.65e-6,"MEAN_MOTION_DDOT":0},{"OBJECT_NAME":"COSMOS 1833","OBJECT_ID":"1987-027A","EPOCH":"2026-03-21T14:40:22.573632","MEAN_MOTION":14.13050824,"ECCENTRICITY":0.00236467,"INCLINATION":70.9191,"RA_OF_ASC_NODE":300.9625,"ARG_OF_PERICENTER":197.2894,"MEAN_ANOMALY":162.7424,"EPHEMERIS_TYPE":0,"CLASSIFICATION_TYPE":"U","NORAD_CAT_ID":17589,"ELEMENT_SET_NO":999,"REV_AT_EPOCH":1200,"BSTAR":-0.00011076513,"MEAN_MOTION_DOT":-2.55e-6,"MEAN_MOTION_DDOT":0},{"OBJECT_NAME":"SL-16 R/B","OBJECT_ID":"1987-027B","EPOCH":"2026-03-21T13:12:40.627872","MEAN_MOTION":14.17166238,"ECCENTRICITY":0.00029999,"INCLINATION":70.9992,"RA_OF_ASC_NODE":251.4988,"ARG_OF_PERICENTER":114.9226,"MEAN_ANOMALY":245.221,"EPHEMERIS_TYPE":0,"CLASSIFICATION_TYPE":"U","NORAD_CAT_ID":17590,"ELEMENT_SET_NO":999,"REV_AT_EPOCH":1702,"BSTAR":-6.8112416e-5,"MEAN_MOTION_DOT":-1.85e-6,"MEAN_MOTION_DDOT":0},{"OBJECT_NAME":"SL-14 R/B","OBJECT_ID":"1987-038B","EPOCH":"2026-03-21T13:22:23.968704","MEAN_MOTION":14.85379413,"ECCENTRICITY":0.00205265,"INCLINATION":82.4983,"RA_OF_ASC_NODE":285.6257,"ARG_OF_PERICENTER":123.0147,"MEAN_ANOMALY":237.3045,"EPHEMERIS_TYPE":0,"CLASSIFICATION_TYPE":"U","NORAD_CAT_ID":17912,"ELEMENT_SET_NO":999,"REV_AT_EPOCH":8099,"BSTAR":4.7855258e-5,"MEAN_MOTION_DOT":4.38e-6,"MEAN_MOTION_DDOT":0},{"OBJECT_NAME":"COSMOS 1844","OBJECT_ID":"1987-041A","EPOCH":"2026-03-21T11:49:07.783680","MEAN_MOTION":14.14551995,"ECCENTRICITY":0.00306173,"INCLINATION":70.901,"RA_OF_ASC_NODE":9.2809,"ARG_OF_PERICENTER":0.7018,"MEAN_ANOMALY":359.4141,"EPHEMERIS_TYPE":0,"CLASSIFICATION_TYPE":"U","NORAD_CAT_ID":17973,"ELEMENT_SET_NO":999,"REV_AT_EPOCH":525,"BSTAR":0.00010863095,"MEAN_MOTION_DOT":1.61e-6,"MEAN_MOTION_DDOT":0},{"OBJECT_NAME":"SL-14 R/B","OBJECT_ID":"1987-055B","EPOCH":"2026-03-21T11:09:06.245568","MEAN_MOTION":14.85641335,"ECCENTRICITY":0.00200831,"INCLINATION":82.5021,"RA_OF_ASC_NODE":337.9363,"ARG_OF_PERICENTER":338.9064,"MEAN_ANOMALY":21.1322,"EPHEMERIS_TYPE":0,"CLASSIFICATION_TYPE":"U","NORAD_CAT_ID":18153,"ELEMENT_SET_NO":999,"REV_AT_EPOCH":7168,"BSTAR":4.9517478e-5,"MEAN_MOTION_DOT":4.54e-6,"MEAN_MOTION_DDOT":0},{"OBJECT_NAME":"COSMOS 1867","OBJECT_ID":"1987-060A","EPOCH":"2026-03-21T14:19:55.758432","MEAN_MOTION":14.31504803,"ECCENTRICITY":0.00146683,"INCLINATION":65.0092,"RA_OF_ASC_NODE":273.3574,"ARG_OF_PERICENTER":279.3495,"MEAN_ANOMALY":80.5931,"EPHEMERIS_TYPE":0,"CLASSIFICATION_TYPE":"U","NORAD_CAT_ID":18187,"ELEMENT_SET_NO":999,"REV_AT_EPOCH":2164,"BSTAR":2.7833204e-5,"MEAN_MOTION_DOT":-2.6e-7,"MEAN_MOTION_DDOT":0},{"OBJECT_NAME":"SL-14 R/B","OBJECT_ID":"1988-001B","EPOCH":"2026-03-21T09:26:34.704672","MEAN_MOTION":14.85540872,"ECCENTRICITY":0.00176808,"INCLINATION":82.5162,"RA_OF_ASC_NODE":184.3556,"ARG_OF_PERICENTER":195.1207,"MEAN_ANOMALY":164.9483,"EPHEMERIS_TYPE":0,"CLASSIFICATION_TYPE":"U","NORAD_CAT_ID":18749,"ELEMENT_SET_NO":999,"REV_AT_EPOCH":4376,"BSTAR":5.6758611e-5,"MEAN_MOTION_DOT":5.16e-6,"MEAN_MOTION_DDOT":0},{"OBJECT_NAME":"COSMOS 1933","OBJECT_ID":"1988-020A","EPOCH":"2026-03-21T12:33:27.503136","MEAN_MOTION":15.1808846,"ECCENTRICITY":0.00048865,"INCLINATION":82.511,"RA_OF_ASC_NODE":239.2002,"ARG_OF_PERICENTER":144.1158,"MEAN_ANOMALY":216.0405,"EPHEMERIS_TYPE":0,"CLASSIFICATION_TYPE":"U","NORAD_CAT_ID":18958,"ELEMENT_SET_NO":999,"REV_AT_EPOCH":5202,"BSTAR":0.00027845813,"MEAN_MOTION_DOT":5.706e-5,"MEAN_MOTION_DDOT":0},{"OBJECT_NAME":"SL-3 R/B","OBJECT_ID":"1988-032B","EPOCH":"2026-03-21T13:58:40.411488","MEAN_MOTION":15.20034782,"ECCENTRICITY":0.00255222,"INCLINATION":97.521,"RA_OF_ASC_NODE":63.7933,"ARG_OF_PERICENTER":188.3927,"MEAN_ANOMALY":171.6885,"EPHEMERIS_TYPE":0,"CLASSIFICATION_TYPE":"U","NORAD_CAT_ID":19046,"ELEMENT_SET_NO":999,"REV_AT_EPOCH":5391,"BSTAR":0.00028593089,"MEAN_MOTION_DOT":6.147e-5,"MEAN_MOTION_DDOT":0},{"OBJECT_NAME":"SL-16 R/B","OBJECT_ID":"1988-039B","EPOCH":"2026-03-21T14:33:33.347808","MEAN_MOTION":14.19617761,"ECCENTRICITY":0.00233477,"INCLINATION":71.0154,"RA_OF_ASC_NODE":43.3473,"ARG_OF_PERICENTER":317.139,"MEAN_ANOMALY":42.7915,"EPHEMERIS_TYPE":0,"CLASSIFICATION_TYPE":"U","NORAD_CAT_ID":19120,"ELEMENT_SET_NO":999,"REV_AT_EPOCH":96007,"BSTAR":-3.6985708e-5,"MEAN_MOTION_DOT":-1.27e-6,"MEAN_MOTION_DDOT":0},{"OBJECT_NAME":"COSMOS 1953","OBJECT_ID":"1988-050A","EPOCH":"2026-03-21T14:31:01.365024","MEAN_MOTION":15.28707911,"ECCENTRICITY":0.00126575,"INCLINATION":82.5083,"RA_OF_ASC_NODE":146.263,"ARG_OF_PERICENTER":85.3613,"MEAN_ANOMALY":274.9072,"EPHEMERIS_TYPE":0,"CLASSIFICATION_TYPE":"U","NORAD_CAT_ID":19210,"ELEMENT_SET_NO":999,"REV_AT_EPOCH":3960,"BSTAR":0.0003295847,"MEAN_MOTION_DOT":9.252e-5,"MEAN_MOTION_DDOT":0}]
